STARLINK-32494          
1 62053U 24216X   26068.55623014  .00032063  00000+0  11691-2 0  9992
2 62053  42.9985 264.1302 0001508 260.6678  99.4003 15.27593993 73774
TEVEL2-4                
1 63213U 25052D   26068.69417973  .00020990  00000+0  70363-3 0  9998
2 63213  97.4009 325.1237 0004733  95.3468 264.8313 15.30925813 54879
